     2.100          NAVIGATION                              RINEX VERSION / TYPE
fic2rin                                 10/29/2014 00:14:40 PGM / RUN BY / DATE
                                                            END OF HEADER
24 14 10 28 12  0  0.0 -.375430099666D-04 -.568434188608D-12  .000000000000D+00
     .178000000000D+03  .724687500000D+02  .479055668877D-08  .580819250459D+00
     .375695526600D-05  .241182092577D-02  .342540442944D-05  .515370453072D+04
     .216000000000D+06  .894069671631D-07 -.132823091874D+01  .689178705215D-07
     .955260915571D+00  .312062500000D+03  .211163767613D+00 -.844392315186D-08
     .195365280605D-09  .100000000000D+01  .181600000000D+04  .000000000000D+00
     .340000000000D+01  .000000000000D+00  .279396772385D-08  .178000000000D+03
     .208806000000D+06  .400000000000D+01
25 14 10 28 12  0  0.0  .166860409081D-04 -.147792889038D-11  .000000000000D+00
     .980000000000D+02 -.870312500000D+02  .434089510142D-08 -.150124771937D+01
    -.449456274509D-05  .375132949557D-02  .467337667942D-05  .515377671432D+04
     .216000000000D+06  .167638063431D-07 -.269865296836D+00 -.111758708954D-07
     .977499372590D+00  .298281250000D+03  .715444081895D+00 -.815962559544D-08
    -.109290266664D-09  .100000000000D+01  .181600000000D+04  .000000000000D+00
     .240000000000D+01  .000000000000D+00  .512227416039D-08  .980000000000D+02
     .208806000000D+06  .400000000000D+01
26 14 10 28 12  0  0.0 -.103615224361D-03 -.128466126625D-10  .000000000000D+00
     .440000000000D+02  .710312500000D+02  .404373986657D-08  .117962055097D+01
     .359117984772D-05  .212659704266D-01  .101923942566D-04  .515369296646D+04
     .216000000000D+06 -.365078449249D-06 -.226385470458D+01 -.154599547386D-06
     .973553661629D+00  .195125000000D+03  .129590336966D+01 -.808676541767D-08
    -.128219626576D-09  .100000000000D+01  .181600000000D+04  .000000000000D+00
     .240000000000D+01  .000000000000D+00 -.651925802231D-08  .440000000000D+02
     .208806000000D+06  .400000000000D+01
27 14 10 28 12  0  0.0  .256118364632D-04  .284217094304D-11  .000000000000D+00
     .510000000000D+02 -.788437500000D+02  .429625038464D-08  .233357895141D+01
    -.398419797421D-05  .153105333447D-02  .104289501905D-04  .515368844414D+04
     .216000000000D+06 -.502914190292D-07  .775592126960D+00  .186264514923D-07
     .965024806802D+00  .179875000000D+03  .311747885116D+00 -.785425573271D-08
     .223223583873D-09  .100000000000D+01  .181600000000D+04  .000000000000D+00
     .240000000000D+01  .000000000000D+00  .139698386192D-08  .510000000000D+02
     .208806000000D+06  .400000000000D+01
29 14 10 28 12  0  0.0  .569580122828D-03  .238742359215D-11  .000000000000D+00
     .700000000000D+01 -.556875000000D+02  .416267339206D-08 -.110128114885D+01
    -.284425914288D-05  .112072494812D-02  .112392008305D-04  .515362103271D+04
     .216000000000D+06  .000000000000D+00  .831263658794D+00 -.670552253723D-07
     .970951712608D+00  .165093750000D+03 -.840772238636D+00 -.785747015231D-08
     .237867050975D-09  .100000000000D+01  .181600000000D+04  .000000000000D+00
     .240000000000D+01  .000000000000D+00 -.977888703346D-08  .700000000000D+01
     .208806000000D+06  .400000000000D+01
30 14 10 28 12  0  0.0 -.761798582971D-04 -.306954461848D-11  .000000000000D+00
     .830000000000D+02  .608750000000D+02  .466769442821D-08 -.533630460811D+00
     .319816172123D-05  .102925603278D-02  .330060720444D-05  .515364826202D+04
     .216000000000D+06 -.149011611938D-07 -.123862020973D+01  .167638063431D-07
     .957640641485D+00  .311625000000D+03 -.308484666548D+01 -.839677833095D-08
     .213937482783D-09  .100000000000D+01  .181600000000D+04  .000000000000D+00
     .240000000000D+01  .000000000000D+00  .325962901115D-08  .830000000000D+02
     .208806000000D+06  .400000000000D+01
31 14 10 28 12  0  0.0  .329914968461D-03 -.568434188608D-12  .000000000000D+00
     .640000000000D+02  .766250000000D+02  .432160858377D-08 -.365588926075D+00
     .383518636227D-05  .815929647069D-02  .392086803913D-05  .515365513039D+04
     .216000000000D+06  .372529029846D-08 -.128412092943D+01 -.193715095520D-06
     .976887432494D+00  .308625000000D+03 -.623832501791D+00 -.831713215622D-08
     .271439877989D-09  .100000000000D+01  .181600000000D+04  .000000000000D+00
     .240000000000D+01  .000000000000D+00 -.135041773319D-07  .640000000000D+02
     .208806000000D+06  .400000000000D+01
12 14 10 28 11 58  8.0  .242082867771D-03  .272848410532D-11  .000000000000D+00
     .220000000000D+02 -.845937500000D+02  .414088677027D-08 -.740911782818D+00
    -.430084764957D-05  .496095628478D-02  .532157719135D-05  .515379297066D+04
     .215888000000D+06  .465661287308D-07 -.225699615695D+00  .186264514923D-07
     .988885970590D+00  .292593750000D+03  .505856892319D+00 -.804819238237D-08
    -.120004998690D-09  .100000000000D+01  .181600000000D+04  .000000000000D+00
     .340000000000D+01  .000000000000D+00 -.121071934700D-07  .220000000000D+02
     .211446000000D+06  .400000000000D+01
 1 14 10 28 11 59 44.0 -.127446837723D-04  .454747350886D-12  .000000000000D+00
     .250000000000D+02  .550000000000D+01  .483412993234D-08  .181180433567D+00
     .311061739922D-06  .361078581773D-02  .723451375961D-05  .515366741180D+04
     .215984000000D+06  .316649675369D-07  .183180658489D+01  .186264514923D-08
     .961013043628D+00  .236625000000D+03  .443897343592D+00 -.814926802115D-08
     .221080637467D-09  .100000000000D+01  .181600000000D+04  .000000000000D+00
     .240000000000D+01  .000000000000D+00  .558793544769D-08  .250000000000D+02
     .214026000000D+06  .400000000000D+01
21 14 10 28 11 59 44.0 -.391792505980D-03 -.204636307899D-11  .000000000000D+00
     .800000000000D+01  .182187500000D+02  .541879714322D-08 -.135975630742D+01
     .119209289551D-05  .217120847665D-01  .689923763275D-05  .515366584587D+04
     .215984000000D+06  .417232513428D-06  .181503160024D+01  .463798642159D-06
     .932574694439D+00  .227750000000D+03 -.198391948283D+01 -.840606443204D-08
     .251081887140D-09  .100000000000D+01  .181600000000D+04  .000000000000D+00
     .240000000000D+01  .000000000000D+00 -.116415321827D-07  .800000000000D+01
     .215706000000D+06  .400000000000D+01
12 14 10 28 13 58  8.0  .242102425545D-03  .272848410532D-11  .000000000000D+00
     .530000000000D+02 -.779062500000D+02  .403445376548D-08  .309230668310D+00
    -.409036874771D-05  .496232579462D-02  .513158738613D-05  .515379559708D+04
     .223088000000D+06  .391155481339D-07 -.225757462402D+00  .540167093277D-07
     .988885148430D+00  .299875000000D+03  .505818658955D+00 -.803033449566D-08
    -.131434046184D-09  .100000000000D+01  .181600000000D+04  .000000000000D+00
     .485000000000D+01  .000000000000D+00 -.121071934700D-07  .530000000000D+02
     .216006000000D+06  .400000000000D+01
 1 14 10 28 13 59 44.0 -.127418898046D-04  .454747350886D-12  .000000000000D+00
     .400000000000D+02  .675000000000D+01  .486841707483D-08  .123121532657D+01
     .512227416039D-06  .361111981329D-02  .759400427341D-05  .515366856766D+04
     .223184000000D+06  .875443220139D-07  .183174753712D+01  .745058059692D-07
     .961014736224D+00  .231500000000D+03  .444049684566D+00 -.816784022333D-08
     .284654714154D-09  .100000000000D+01  .181600000000D+04  .000000000000D+00
     .240000000000D+01  .000000000000D+00  .558793544769D-08  .400000000000D+02
     .216006000000D+06  .400000000000D+01
21 14 10 28 13 59 44.0 -.391807407141D-03 -.204636307899D-11  .000000000000D+00
     .470000000000D+02  .188437500000D+02  .566559313755D-08 -.309555174261D+00
     .112317502499D-05  .217121694004D-01  .715069472790D-05  .515366617393D+04
     .223184000000D+06 -.156462192535D-06  .181496788870D+01  .245869159698D-06
     .932574336024D+00  .229406250000D+03 -.198392714559D+01 -.898108838409D-08
     .322513433979D-09  .100000000000D+01  .181600000000D+04  .000000000000D+00
     .240000000000D+01  .000000000000D+00 -.116415321827D-07  .470000000000D+02
     .216006000000D+06  .400000000000D+01
 2 14 10 28 14  0  0.0  .526800751686D-03  .216004991671D-11  .000000000000D+00
     .570000000000D+02  .812500000000D+01  .522843207090D-08  .196273498368D+01
     .303611159325D-06  .138676686911D-01  .762380659580D-05  .515369995689D+04
     .223200000000D+06 -.393018126488D-06  .179876593053D+01 -.171363353729D-06
     .939579169610D+00  .224906250000D+03 -.237629763687D+01 -.834749056363D-08
     .311798701953D-09  .100000000000D+01  .181600000000D+04  .000000000000D+00
     .240000000000D+01  .000000000000D+00 -.204890966415D-07  .570000000000D+02
     .216006000000D+06  .400000000000D+01
 4 14 10 28 14  0  0.0 -.218953937292D-05 -.568434188608D-12  .000000000000D+00
     .103000000000D+03  .828125000000D+01  .543808366087D-08  .778532914141D+00
     .581145286560D-06  .112191962544D-01  .768527388573D-05  .515199168777D+04
     .223200000000D+06 -.745058059692D-07  .181437627439D+01  .102445483208D-06
     .938597239977D+00  .221093750000D+03  .109135792975D+01 -.861214444467D-08
     .257510726355D-09  .100000000000D+01  .181600000000D+04  .000000000000D+00
     .240000000000D+01  .000000000000D+00 -.651925802231D-08  .103000000000D+03
     .216006000000D+06  .400000000000D+01
 5 14 10 28 14  0  0.0 -.324472319335D-03  .420641299570D-11  .000000000000D+00
     .107000000000D+03 -.185312500000D+02  .505521056981D-08 -.198094633590D+01
    -.998377799988D-06  .394058588427D-02  .742636620998D-05  .515370399475D+04
     .223200000000D+06  .428408384323D-07  .286796028126D+01 -.484287738800D-07
     .947192082649D+00  .230031250000D+03  .375744583842D+00 -.826034407649D-08
    -.362872257943D-09  .100000000000D+01  .181600000000D+04  .000000000000D+00
     .340000000000D+01  .000000000000D+00 -.107102096081D-07  .107000000000D+03
     .216006000000D+06  .400000000000D+01
